[{"OBJECT_NAME":"ONEWEB-0528","OBJECT_ID":"2022-166B","EPOCH":"2026-03-09T22:32:37.721472","MEAN_MOTION":13.21825047,"ECCENTRICITY":0.00016801,"INCLINATION":87.9162,"RA_OF_ASC_NODE":263.7914,"ARG_OF_PERICENTER":95.0626,"MEAN_ANOMALY":265.07,"EPHEMERIS_TYPE":0,"CLASSIFICATION_TYPE":"U","NORAD_CAT_ID":54643,"ELEMENT_SET_NO":999,"REV_AT_EPOCH":15843,"BSTAR":-0.00039837785,"MEAN_MOTION_DOT":-1.52e-6,"MEAN_MOTION_DDOT":0},{"OBJECT_NAME":"SCOUT A DEB","OBJECT_ID":"1968-012D","EPOCH":"2026-03-09T14:11:26.158272","MEAN_MOTION":13.29255542,"ECCENTRICITY":0.0186242,"INCLINATION":89.8176,"RA_OF_ASC_NODE":105.3249,"ARG_OF_PERICENTER":174.8352,"MEAN_ANOMALY":314.7696,"EPHEMERIS_TYPE":0,"CLASSIFICATION_TYPE":"U","NORAD_CAT_ID":3214,"ELEMENT_SET_NO":999,"REV_AT_EPOCH":57130,"BSTAR":0.00024251,"MEAN_MOTION_DOT":1.33e-6,"MEAN_MOTION_DDOT":0}]
